OBJECT_NAME,OBJECT_ID,EPOCH,MEAN_MOTION,ECCENTRICITY,INCLINATION,RA_OF_ASC_NODE,ARG_OF_PERICENTER,MEAN_ANOMALY,EPHEMERIS_TYPE,CLASSIFICATION_TYPE,NORAD_CAT_ID,ELEMENT_SET_NO,REV_AT_EPOCH,BSTAR,MEAN_MOTION_DOT,MEAN_MOTION_DDOT
GLOBALSTAR M069,2007-020C,2026-07-23T05:43:32.519712,12.23472604,.0001471,52.0020,150.0854,228.3389,277.9110,0,U,31573,999,88321,.28084E-3,-.62E-6,0
GLOBALSTAR M072,2007-020D,2026-07-23T08:35:27.502080,11.91658768,.0001636,51.9954,3.9489,50.1578,315.8926,0,U,31574,999,87929,.32091E-4,-.82E-6,0
GLOBALSTAR M066,2007-048C,2026-07-23T17:41:23.451072,12.30390701,.0005452,51.9608,312.9902,119.1810,45.0883,0,U,32265,999,86472,.64737E-3,-.18E-6,0
GLOBALSTAR M079,2010-054A,2026-07-23T21:36:42.557184,12.62266445,.000111,52.0060,356.9093,91.6633,73.2485,0,U,37188,999,72718,.35675E-4,-.97E-6,0
GLOBALSTAR M074,2010-054B,2026-07-23T20:15:03.811104,12.62262047,.0000824,52.0038,356.3417,106.4571,40.5266,0,U,37189,999,72778,.20562E-4,-.1E-5,0
GLOBALSTAR M076,2010-054C,2026-07-23T10:47:05.872128,12.62262713,.0001074,52.0054,357.7490,103.3381,290.3890,0,U,37190,999,72745,.12603E-3,-.81E-6,0
GLOBALSTAR M077,2010-054D,2026-07-23T02:31:24.438144,11.67547147,.00021482,51.9963,88.1305,239.9139,289.0346,0,U,37191,999,72533,-.19577933E-3,-.89E-6,0
GLOBALSTAR M075,2010-054E,2026-07-23T12:54:41.892768,12.62267911,.0000798,51.9957,39.5122,76.6603,300.6199,0,U,37192,999,72653,.99945E-5,-.102E-5,0
GLOBALSTAR M073,2010-054F,2026-07-23T17:24:25.898400,12.62266984,.0000956,52.0078,313.0725,109.4951,37.6656,0,U,37193,999,72854,.21411E-4,-.1E-5,0
GLOBALSTAR M083,2011-033A,2026-07-23T15:56:16.734912,12.62258562,.0000669,51.9848,261.4384,113.8012,56.2163,0,U,37739,999,69755,.91754E-4,-.87E-6,0
GLOBALSTAR M088,2011-033B,2026-07-23T07:40:42.714048,12.62269562,.0000198,52.0195,168.9984,33.4122,130.8600,0,U,37740,999,69305,.86538E-4,-.88E-6,0
GLOBALSTAR M091,2011-033C,2026-07-23T13:48:47.397312,12.62264337,.0000619,51.9992,131.1332,38.2413,148.6110,0,U,37741,999,69387,-.53535E-5,-.105E-5,0
GLOBALSTAR M085,2011-033D,2026-07-23T16:29:52.647360,12.62264559,.0000926,52.0129,82.1168,56.2621,339.1711,0,U,37742,999,69440,-.16461E-5,-.104E-5,0
GLOBALSTAR M081,2011-033E,2026-07-23T15:07:38.171424,12.62265462,.000079,51.9961,84.6850,66.8786,308.8052,0,U,37743,999,69454,.14968E-4,-.101E-5,0
GLOBALSTAR M089,2011-033F,2026-07-23T01:42:23.177376,12.62267686,.00007251,51.9941,40.5389,99.3141,75.2064,0,U,37744,999,69531,.29139683E-4,-.99E-6,0
GLOBALSTAR M084,2011-080A,2026-07-23T09:08:04.847424,12.62263747,.000065,52.0002,267.0994,145.0252,296.3303,0,U,38040,999,67333,.74837E-4,-.9E-6,0
GLOBALSTAR M080,2011-080B,2026-07-23T08:26:04.663968,12.62257668,.0000293,52.0053,268.9195,63.2595,15.1079,0,U,38041,999,67345,.68017E-4,-.92E-6,0
GLOBALSTAR M082,2011-080C,2026-07-23T11:12:12.083328,12.62264400,.0000236,52.0049,224.0712,43.8468,129.1413,0,U,38042,999,67417,.12028E-3,-.82E-6,0
GLOBALSTAR M092,2011-080D,2026-07-23T18:07:55.632000,12.62268019,.0000691,52.0104,313.5917,113.8210,51.1564,0,U,38043,999,67266,.74163E-4,-.9E-6,0
GLOBALSTAR M090,2011-080E,2026-07-23T05:43:23.288736,12.62269634,.0000392,52.0096,218.7334,79.0708,14.7144,0,U,38044,999,67426,.80019E-4,-.89E-6,0
GLOBALSTAR M086,2011-080F,2026-07-23T08:10:46.998336,12.62287844,.0001381,51.9867,218.2913,123.1020,340.3198,0,U,38045,999,67422,.81517E-4,-.89E-6,0
GLOBALSTAR M097,2013-005A,2026-07-23T19:48:06.752160,12.62271309,.000062,52.0037,131.8059,51.1747,308.9175,0,U,39072,999,62153,-.52143E-4,-.113E-5,0
GLOBALSTAR M093,2013-005B,2026-07-23T03:57:25.232832,12.62266458,.00008241,52.0101,127.1770,55.3218,304.7727,0,U,39073,999,62140,.26942001E-4,-.99E-6,0
GLOBALSTAR M094,2013-005C,2026-07-23T13:27:20.978208,12.62264263,.0001049,51.9969,40.0524,77.3511,282.7473,0,U,39074,999,62306,.59948E-6,-.104E-5,0
GLOBALSTAR M096,2013-005D,2026-07-23T15:40:50.705760,12.62265949,.0000879,52.0077,88.6013,57.2222,302.8729,0,U,39075,999,62199,.93222E-5,-.102E-5,0
GLOBALSTAR M078,2013-005E,2026-07-23T20:44:16.058400,12.62260140,.0001049,51.9853,171.9187,2.1931,357.8940,0,U,39076,999,62064,.57166E-4,-.94E-6,0
GLOBALSTAR M095,2013-005F,2026-07-23T04:16:25.857984,12.62264106,.00006382,52.0060,171.6621,25.4631,334.6267,0,U,39077,999,62041,.48282799E-4,-.95E-6,0
GLOBALSTAR M087,2022-064A,2026-07-23T17:53:26.093760,12.62269361,.0000808,52.0016,311.1545,95.8800,264.2158,0,U,52888,999,19575,-.48304E-5,-.105E-5,0
